NORAD_CAT_ID,OBJECT_NAME,OBJECT_TYPE,EPOCH,MEAN_MOTION,ECCENTRICITY,INCLINATION,RA_OF_ASC_NODE,ARG_OF_PERICENTER,MEAN_ANOMALY,BSTAR,MEAN_MOTION_DOT,MEAN_MOTION_DDOT,TLE_LINE0,TLE_LINE1,TLE_LINE2,SEMIMAJOR_AXIS,PERIOD,APOGEE,PERIGEE,DECAYED
53431.0,STARLINK-4548,PAYLOAD,2024-04-06 04:12:57,15.08837641,0.0001519,53.2193,17.4415,92.0952,268.0214,-2.815e-05,-7.36e-06,0.0,0 STARLINK-4548,1 53431U 22097AV  24097.17566424 -.00000736  00000-0 -28150-4 0  9991,2 53431  53.2193  17.4415 0001519  92.0952 268.0214 15.08837641 92250,6917.888,95.438,540.803,538.702,0.0
53431.0,STARLINK-4548,PAYLOAD,2024-04-06 12:09:53,15.08839541,0.0001499,53.2196,15.9552,91.4942,268.6222,5.5107e-06,-2e-06,0.0,0 STARLINK-4548,1 53431U 22097AV  24097.50686493 -.00000200  00000-0  55107-5 0  9995,2 53431  53.2196  15.9552 0001499  91.4942 268.6222 15.08839541 92781,6917.882,95.438,540.784,538.71,0.0
53431.0,STARLINK-4548,PAYLOAD,2024-04-06 21:42:11,15.08847004,0.0001338,53.2174,14.173,85.1408,274.9737,0.00018796,2.705e-05,0.0,0 STARLINK-4548,1 53431U 22097AV  24097.90430057  .00002705  00000-0  18796-3 0  9994,2 53431  53.2174  14.1730 0001338  85.1408 274.9737 15.08847004 92846,6917.859,95.437,540.65,538.798,0.0
53431.0,STARLINK-4548,PAYLOAD,2024-04-07 04:03:43,15.08853812,0.0001377,53.219,12.9819,93.4702,266.6448,0.00022454,3.289e-05,0.0,0 STARLINK-4548,1 53431U 22097AV  24098.16925583  .00003289  00000-0  22454-3 0  9990,2 53431  53.2190  12.9819 0001377  93.4702 266.6448 15.08853812 92885,6917.838,95.437,540.656,538.751,0.0
53431.0,STARLINK-4548,PAYLOAD,2024-04-07 21:32:58,15.08839377,0.0001431,53.2191,9.7124,87.0311,273.0845,0.00012603,1.718e-05,0.0,0 STARLINK-4548,1 53431U 22097AV  24098.89790466  .00001718  00000-0  12603-3 0  9990,2 53431  53.2191   9.7124 0001431  87.0311 273.0845 15.08839377 92518,6917.882,95.438,540.737,538.757,0.0
53431.0,STARLINK-4548,PAYLOAD,2024-04-07 23:08:22,15.08838503,0.0001394,53.2192,9.4145,86.2427,273.8725,0.00010584,1.397e-05,0.0,0 STARLINK-4548,1 53431U 22097AV  24098.96414505  .00001397  00000-0  10584-3 0  9994,2 53431  53.2192   9.4145 0001394  86.2427 273.8725 15.08838503 93006,6917.885,95.438,540.714,538.786,0.0
53431.0,STARLINK-4548,PAYLOAD,2024-04-08 03:54:31,15.08841236,0.0001355,53.2188,8.5216,99.8936,260.2209,0.00015385,2.162e-05,0.0,0 STARLINK-4548,1 53431U 22097AV  24099.16286367  .00002162  00000-0  15385-3 0  9995,2 53431  53.2188   8.5216 0001355  99.8936 260.2209 15.08841236 93039,6917.877,95.437,540.679,538.804,0.0
53431.0,STARLINK-4548,PAYLOAD,2024-04-09 00:34:31,15.0884731,0.0001312,53.2186,4.6589,98.2281,261.886,0.00013692,1.892e-05,0.0,0 STARLINK-4548,1 53431U 22097AV  24100.02398036  .00001892  00000-0  13692-3 0  9998,2 53431  53.2186   4.6589 0001312  98.2281 261.8860 15.08847310 93169,6917.858,95.437,540.631,538.815,0.0
53431.0,STARLINK-4548,PAYLOAD,2024-04-09 10:06:50,15.0884538,0.000123,53.2177,2.8742,91.9412,268.1721,2.7439e-05,1.49e-06,0.0,0 STARLINK-4548,1 53431U 22097AV  24100.42141919  .00000149  00000-0  27439-4 0  9997,2 53431  53.2177   2.8742 0001230  91.9412 268.1721 15.08845380 93223,6917.864,95.437,540.58,538.878,0.0
53431.0,STARLINK-4548,PAYLOAD,2024-04-09 22:49:56,15.08834892,0.0001462,53.22,0.4965,101.723,258.3927,2.7406e-05,1.48e-06,0.0,0 STARLINK-4548,1 53431U 22097AV  24100.95134774  .00000148  00000-0  27406-4 0  9999,2 53431  53.2200   0.4965 0001462 101.7230 258.3927 15.08834892 93300,6917.896,95.438,540.772,538.75,0.0
53431.0,STARLINK-4548,PAYLOAD,2024-04-10 00:25:19,15.08834143,0.0001396,53.2191,0.1997,101.4522,258.6627,-3.6607e-06,-3.46e-06,0.0,0 STARLINK-4548,1 53431U 22097AV  24101.01758833 -.00000346  00000-0 -36607-5 0  9991,2 53431  53.2191   0.1997 0001396 101.4522 258.6627 15.08834143 92834,6917.898,95.438,540.729,538.798,0.0
53431.0,STARLINK-4548,PAYLOAD,2024-04-10 09:57:38,15.08836828,0.0001496,53.2204,358.4154,100.3821,259.7339,3.1606e-05,2.15e-06,0.0,0 STARLINK-4548,1 53431U 22097AV  24101.41502775  .00000215  00000-0  31606-4 0  9993,2 53431  53.2204 358.4154 0001496 100.3821 259.7339 15.08836828 93378,6917.89,95.438,540.79,538.72,0.0
53431.0,STARLINK-4548,PAYLOAD,2024-04-10 21:05:20,15.08839622,0.0001487,53.2203,356.3348,100.8819,259.2341,-5.9759e-05,-1.239e-05,0.0,0 STARLINK-4548,1 53431U 22097AV  24101.87870798 -.00001239  00000-0 -59759-4 0  9994,2 53431  53.2203 356.3348 0001487 100.8819 259.2341 15.08839622 93442,6917.882,95.438,540.775,538.718,0.0
53431.0,STARLINK-4548,PAYLOAD,2024-04-11 03:26:52,15.08843712,0.0001317,53.219,355.1429,93.7378,266.3764,5.9053e-05,6.52e-06,0.0,0 STARLINK-4548,1 53431U 22097AV  24102.14366761  .00000652  00000-0  59053-4 0  9998,2 53431  53.2190 355.1429 0001317  93.7378 266.3764 15.08843712 93001,6917.869,95.437,540.645,538.823,0.0
53431.0,STARLINK-4548,PAYLOAD,2024-04-11 09:48:25,15.08838817,0.0001292,53.2187,353.9512,83.5548,276.5591,6.1088e-05,6.84e-06,0.0,0 STARLINK-4548,1 53431U 22097AV  24102.40863102  .00000684  00000-0  61088-4 0  9994,2 53431  53.2187 353.9512 0001292  83.5548 276.5591 15.08838817 93522,6917.884,95.438,540.643,538.855,0.0
53431.0,STARLINK-4548,PAYLOAD,2024-04-11 20:56:07,15.08835367,0.0001491,53.2192,351.87,81.6099,278.5063,0.00012736,1.739e-05,0.0,0 STARLINK-4548,1 53431U 22097AV  24102.87231448  .00001739  00000-0  12736-3 0  9994,2 53431  53.2192 351.8700 0001491  81.6099 278.5063 15.08835367 93113,6917.895,95.438,540.791,538.728,0.0
53431.0,STARLINK-4548,PAYLOAD,2024-04-12 01:42:16,15.08846828,0.0001414,53.2191,350.9768,80.1289,279.9863,7.1215e-05,8.46e-06,0.0,0 STARLINK-4548,1 53431U 22097AV  24103.07102848  .00000846  00000-0  71215-4 0  9994,2 53431  53.2191 350.9768 0001414  80.1289 279.9863 15.08846828 93146,6917.86,95.437,540.703,538.746,0.0
53431.0,STARLINK-4548,PAYLOAD,2024-04-12 22:22:18,15.08840484,0.0001619,53.2191,347.1103,72.8078,287.3091,8.0733e-05,9.97e-06,0.0,0 STARLINK-4548,1 53431U 22097AV  24103.93215472  .00000997  00000-0  80733-4 0  9999,2 53431  53.2191 347.1103 0001619  72.8078 287.3091 15.08840484 93753,6917.879,95.438,540.864,538.624,0.0
53431.0,STARLINK-4548,PAYLOAD,2024-04-12 23:57:41,15.08841394,0.000142,53.2185,346.8118,78.809,281.3062,7.2433e-05,8.65e-06,0.0,0 STARLINK-4548,1 53431U 22097AV  24103.99839321  .00000865  00000-0  72433-4 0  9992,2 53431  53.2185 346.8118 0001420  78.8090 281.3062 15.08841394 93289,6917.876,95.437,540.723,538.759,0.0
53431.0,STARLINK-4548,PAYLOAD,2024-04-13 20:37:41,15.08846253,0.0001309,53.2183,342.9469,90.9465,269.1677,0.00013957,1.934e-05,0.0,0 STARLINK-4548,1 53431U 22097AV  24104.85950734  .00001934  00000-0  13957-3 0  9993,2 53431  53.2183 342.9469 0001309  90.9465 269.1677 15.08846253 93892,6917.861,95.437,540.632,538.821,0.0
53431.0,STARLINK-4548,PAYLOAD,2024-04-13 22:13:04,15.0885244,0.0001686,53.2198,342.6451,70.3788,289.7386,0.0001003,1.309e-05,0.0,0 STARLINK-4548,1 53431U 22097AV  24104.92574602  .00001309  00000-0  10030-3 0  9992,2 53431  53.2198 342.6451 0001686  70.3788 289.7386 15.08852440 93423,6917.842,95.437,540.874,538.541,0.0
53431.0,STARLINK-4548,PAYLOAD,2024-04-14 20:28:28,15.08846131,0.0001724,53.2169,338.4974,64.8754,295.2416,8.3844e-05,1.047e-05,0.0,0 STARLINK-4548,1 53431U 22097AV  24105.85311091  .00001047  00000-0  83844-4 0  9999,2 53431  53.2169 338.4974 0001724  64.8754 295.2416 15.08846131 93569,6917.862,95.437,540.919,538.534,0.0
53431.0,STARLINK-4548,PAYLOAD,2024-04-14 22:03:51,15.08848259,0.0001776,53.2171,338.2012,63.5349,296.5825,7.4955e-05,9.05e-06,0.0,0 STARLINK-4548,1 53431U 22097AV  24105.91934944  .00000905  00000-0  74955-4 0  9999,2 53431  53.2171 338.2012 0001776  63.5349 296.5825 15.08848259 94052,6917.855,95.437,540.949,538.492,0.0
53431.0,STARLINK-4548,PAYLOAD,2024-04-15 01:14:37,15.0885286,0.0001602,53.2185,337.5943,74.5064,285.6105,6.2551e-05,7.08e-06,0.0,0 STARLINK-4548,1 53431U 22097AV  24106.05182379  .00000708  00000-0  62551-4 0  9992,2 53431  53.2185 337.5943 0001602  74.5064 285.6105 15.08852860 93597,6917.841,95.437,540.814,538.598,0.0
53431.0,STARLINK-4548,PAYLOAD,2024-04-15 20:19:15,15.08846698,0.0001565,53.2188,334.0228,93.7131,266.404,-3.6161e-06,-3.46e-06,0.0,0 STARLINK-4548,1 53431U 22097AV  24106.84670748 -.00000346  00000-0 -36161-5 0  9990,2 53431  53.2188 334.0228 0001565  93.7131 266.4040 15.08846698 93715,6917.86,95.437,540.808,538.642,0.0
53431.0,STARLINK-4548,PAYLOAD,2024-04-15 21:54:38,15.08846166,0.0001798,53.2174,333.7278,53.6721,306.4437,4.1018e-05,3.65e-06,0.0,0 STARLINK-4548,1 53431U 22097AV  24106.91294818  .00000365  00000-0  41018-4 0  9993,2 53431  53.2174 333.7278 0001798  53.6721 306.4437 15.08846166 94209,6917.862,95.437,540.97,538.483,0.0
53431.0,STARLINK-4548,PAYLOAD,2024-04-16 20:10:02,15.0884628,0.0001358,53.2164,329.5653,93.0311,267.0836,6.8672e-05,8.05e-06,0.0,0 STARLINK-4548,1 53431U 22097AV  24107.84030501  .00000805  00000-0  68672-4 0  9997,2 53431  53.2164 329.5653 0001358  93.0311 267.0836 15.08846280 94340,6917.861,95.437,540.666,538.787,0.0
53431.0,STARLINK-4548,PAYLOAD,2024-04-17 00:56:11,15.08849895,0.0001504,53.2168,328.6717,83.9888,276.1275,0.00015773,2.224e-05,0.0,0 STARLINK-4548,1 53431U 22097AV  24108.03902257  .00002224  00000-0  15773-3 0  9995,2 53431  53.2168 328.6717 0001504  83.9888 276.1275 15.08849895 93897,6917.85,95.437,540.756,538.675,0.0
53431.0,STARLINK-4548,PAYLOAD,2024-04-17 21:36:13,15.08827224,0.000143,53.2166,324.814,109.8627,250.2519,-0.00013333,-2.408e-05,0.0,0 STARLINK-4548,1 53431U 22097AV  24108.90015843 -.00002408  00000-0 -13333-3 0  9993,2 53431  53.2166 324.8140 0001430 109.8627 250.2519 15.08827224 94022,6917.919,95.438,540.774,538.795,0.0
53431.0,STARLINK-4548,PAYLOAD,2024-04-17 23:11:36,15.08834877,0.0001368,53.2167,324.5131,97.0045,263.1102,6.8496e-05,8.02e-06,0.0,0 STARLINK-4548,1 53431U 22097AV  24108.96639732  .00000802  00000-0  68496-4 0  9993,2 53431  53.2167 324.5131 0001368  97.0045 263.1102 15.08834877 94036,6917.896,95.438,540.707,538.815,0.0
